CCSDS_OMM_VERS = 2.0
CREATION_DATE  = 
ORIGINATOR     = 

OBJECT_NAME    = STARLINK-34720
OBJECT_ID      = 2025-259AD
CENTER_NAME    = EARTH
REF_FRAME      = TEME
TIME_SYSTEM    = UTC
MEAN_ELEMENT_THEORY = SGP/SGP4

EPOCH          = 2025-11-21T00:00:02.000160
MEAN_MOTION    = 15.85795337
ECCENTRICITY   = .00017794
INCLINATION    = 42.9983
RA_OF_ASC_NODE = 176.2982
ARG_OF_PERICENTER = 278.8347
MEAN_ANOMALY   = 144.3466

EPHEMERIS_TYPE = 0
CLASSIFICATION_TYPE = U
NORAD_CAT_ID   = 66449
ELEMENT_SET_NO = 999
REV_AT_EPOCH   = 267
BSTAR          = -.74522244E-2
MEAN_MOTION_DOT = -.1641284E-1
MEAN_MOTION_DDOT = 0

CCSDS_OMM_VERS = 2.0
CREATION_DATE  = 
ORIGINATOR     = 

OBJECT_NAME    = STARLINK-35334
OBJECT_ID      = 2025-259AE
CENTER_NAME    = EARTH
REF_FRAME      = TEME
TIME_SYSTEM    = UTC
MEAN_ELEMENT_THEORY = SGP/SGP4

EPOCH          = 2025-11-21T00:00:02.000160
MEAN_MOTION    = 15.85792866
ECCENTRICITY   = .00017401
INCLINATION    = 42.9980
RA_OF_ASC_NODE = 176.2917
ARG_OF_PERICENTER = 279.0435
MEAN_ANOMALY   = 146.5632

EPHEMERIS_TYPE = 0
CLASSIFICATION_TYPE = U
NORAD_CAT_ID   = 66450
ELEMENT_SET_NO = 999
REV_AT_EPOCH   = 278
BSTAR          = -.75036439E-2
MEAN_MOTION_DOT = -.1650912E-1
MEAN_MOTION_DDOT = 0

CCSDS_OMM_VERS = 2.0
CREATION_DATE  = 
ORIGINATOR     = 

OBJECT_NAME    = VIASAT-3 F2
OBJECT_ID      = 2025-261A
CENTER_NAME    = EARTH
REF_FRAME      = TEME
TIME_SYSTEM    = UTC
MEAN_ELEMENT_THEORY = SGP/SGP4

EPOCH          = 2025-11-20T14:56:47.493888
MEAN_MOTION    = 2.28527474
ECCENTRICITY   = .23414894
INCLINATION    = 5.5952
RA_OF_ASC_NODE = 294.4829
ARG_OF_PERICENTER = 181.4900
MEAN_ANOMALY   = 340.1761

EPHEMERIS_TYPE = 0
CLASSIFICATION_TYPE = U
NORAD_CAT_ID   = 66454
ELEMENT_SET_NO = 999
REV_AT_EPOCH   = 14
BSTAR          = 0
MEAN_MOTION_DOT = -.68E-6
MEAN_MOTION_DDOT = 0

CCSDS_OMM_VERS = 2.0
CREATION_DATE  = 
ORIGINATOR     = 

OBJECT_NAME    = ATLAS 5 CENTAUR R/B
OBJECT_ID      = 2025-261B
CENTER_NAME    = EARTH
REF_FRAME      = TEME
TIME_SYSTEM    = UTC
MEAN_ELEMENT_THEORY = SGP/SGP4

EPOCH          = 2025-11-20T11:07:04.934784
MEAN_MOTION    = 2.28240259
ECCENTRICITY   = .23298418
INCLINATION    = 6.1751
RA_OF_ASC_NODE = 293.8378
ARG_OF_PERICENTER = 181.9995
MEAN_ANOMALY   = 199.6596

EPHEMERIS_TYPE = 0
CLASSIFICATION_TYPE = U
NORAD_CAT_ID   = 66455
ELEMENT_SET_NO = 999
REV_AT_EPOCH   = 14
BSTAR          = 0
MEAN_MOTION_DOT = -.69E-6
MEAN_MOTION_DDOT = 0

CCSDS_OMM_VERS = 2.0
CREATION_DATE  = 
ORIGINATOR     = 

OBJECT_NAME    = SENTINEL-6B
OBJECT_ID      = 2025-264A
CENTER_NAME    = EARTH
REF_FRAME      = TEME
TIME_SYSTEM    = UTC
MEAN_ELEMENT_THEORY = SGP/SGP4

EPOCH          = 2025-11-20T20:19:57.354240
MEAN_MOTION    = 12.85877033
ECCENTRICITY   = .0011501
INCLINATION    = 66.0404
RA_OF_ASC_NODE = 208.2345
ARG_OF_PERICENTER = 270.2671
MEAN_ANOMALY   = 89.7029

EPHEMERIS_TYPE = 0
CLASSIFICATION_TYPE = U
NORAD_CAT_ID   = 66514
ELEMENT_SET_NO = 999
REV_AT_EPOCH   = 47
BSTAR          = .42994622E-2
MEAN_MOTION_DOT = .1E-4
MEAN_MOTION_DDOT = 0

CCSDS_OMM_VERS = 2.0
CREATION_DATE  = 
ORIGINATOR     = 

OBJECT_NAME    = SZ-21 MODULE
OBJECT_ID      = 2025-246C
CENTER_NAME    = EARTH
REF_FRAME      = TEME
TIME_SYSTEM    = UTC
MEAN_ELEMENT_THEORY = SGP/SGP4

EPOCH          = 2025-11-20T19:07:15.939264
MEAN_MOTION    = 15.61031017
ECCENTRICITY   = .00045605
INCLINATION    = 41.4744
RA_OF_ASC_NODE = 149.7537
ARG_OF_PERICENTER = 104.7450
MEAN_ANOMALY   = 255.3895

EPHEMERIS_TYPE = 0
CLASSIFICATION_TYPE = U
NORAD_CAT_ID   = 66515
ELEMENT_SET_NO = 999
REV_AT_EPOCH   = 101
BSTAR          = .27646866E-3
MEAN_MOTION_DOT = .23663E-3
MEAN_MOTION_DDOT = 0

CCSDS_OMM_VERS = 2.0
CREATION_DATE  = 
ORIGINATOR     = 

OBJECT_NAME    = SHIJIAN-30A
OBJECT_ID      = 2025-266A
CENTER_NAME    = EARTH
REF_FRAME      = TEME
TIME_SYSTEM    = UTC
MEAN_ELEMENT_THEORY = SGP/SGP4

EPOCH          = 2025-11-20T20:42:43.399584
MEAN_MOTION    = 15.15598006
ECCENTRICITY   = .00127675
INCLINATION    = 51.7994
RA_OF_ASC_NODE = 75.3304
ARG_OF_PERICENTER = 278.4320
MEAN_ANOMALY   = 81.5209

EPHEMERIS_TYPE = 0
CLASSIFICATION_TYPE = U
NORAD_CAT_ID   = 66545
ELEMENT_SET_NO = 999
REV_AT_EPOCH   = 26
BSTAR          = .3883558E-3
MEAN_MOTION_DOT = .7177E-4
MEAN_MOTION_DDOT = 0

CCSDS_OMM_VERS = 2.0
CREATION_DATE  = 
ORIGINATOR     = 

OBJECT_NAME    = SHIJIAN-30B
OBJECT_ID      = 2025-266B
CENTER_NAME    = EARTH
REF_FRAME      = TEME
TIME_SYSTEM    = UTC
MEAN_ELEMENT_THEORY = SGP/SGP4

EPOCH          = 2025-11-20T20:43:07.746240
MEAN_MOTION    = 15.15355493
ECCENTRICITY   = .00104589
INCLINATION    = 51.7977
RA_OF_ASC_NODE = 75.3326
ARG_OF_PERICENTER = 277.9130
MEAN_ANOMALY   = 82.0659

EPHEMERIS_TYPE = 0
CLASSIFICATION_TYPE = U
NORAD_CAT_ID   = 66546
ELEMENT_SET_NO = 999
REV_AT_EPOCH   = 26
BSTAR          = .4665006E-3
MEAN_MOTION_DOT = .862E-4
MEAN_MOTION_DDOT = 0

CCSDS_OMM_VERS = 2.0
CREATION_DATE  = 
ORIGINATOR     = 

OBJECT_NAME    = SHIJIAN-30C
OBJECT_ID      = 2025-266C
CENTER_NAME    = EARTH
REF_FRAME      = TEME
TIME_SYSTEM    = UTC
MEAN_ELEMENT_THEORY = SGP/SGP4

EPOCH          = 2025-11-20T20:43:30.046080
MEAN_MOTION    = 15.15114739
ECCENTRICITY   = .00113371
INCLINATION    = 51.7988
RA_OF_ASC_NODE = 75.3341
ARG_OF_PERICENTER = 270.4704
MEAN_ANOMALY   = 89.4973

EPHEMERIS_TYPE = 0
CLASSIFICATION_TYPE = U
NORAD_CAT_ID   = 66547
ELEMENT_SET_NO = 999
REV_AT_EPOCH   = 26
BSTAR          = .31598852E-3
MEAN_MOTION_DOT = .5696E-4
MEAN_MOTION_DDOT = 0

CCSDS_OMM_VERS = 2.0
CREATION_DATE  = 
ORIGINATOR     = 

OBJECT_NAME    = CZ-2C R/B
OBJECT_ID      = 2025-266D
CENTER_NAME    = EARTH
REF_FRAME      = TEME
TIME_SYSTEM    = UTC
MEAN_ELEMENT_THEORY = SGP/SGP4

EPOCH          = 2025-11-20T18:47:19.627584
MEAN_MOTION    = 15.29489618
ECCENTRICITY   = .00854948
INCLINATION    = 52.0556
RA_OF_ASC_NODE = 75.8305
ARG_OF_PERICENTER = 98.3506
MEAN_ANOMALY   = 262.7184

EPHEMERIS_TYPE = 0
CLASSIFICATION_TYPE = U
NORAD_CAT_ID   = 66548
ELEMENT_SET_NO = 999
REV_AT_EPOCH   = 25
BSTAR          = .42318606E-3
MEAN_MOTION_DOT = .13333E-3
MEAN_MOTION_DDOT = 0

