STARLINK-34720          
1 66449U 25259AD  25325.00002315 -.01641284  00000+0 -74522-2 0  9999
2 66449  42.9983 176.2982 0001779 278.8347 144.3466 15.85795337  2670
STARLINK-35334          
1 66450U 25259AE  25325.00002315 -.01650912  00000+0 -75036-2 0  9990
2 66450  42.9980 176.2917 0001740 279.0435 146.5632 15.85792866  2781
VIASAT-3 F2             
1 66454U 25261A   25324.62277192 -.00000068  00000+0  00000+0 0  9996
2 66454   5.5952 294.4829 2341489 181.4900 340.1761  2.28527474   143
ATLAS 5 CENTAUR R/B     
1 66455U 25261B   25324.46325156 -.00000069  00000+0  00000+0 0  9994
2 66455   6.1751 293.8378 2329841 181.9995 199.6596  2.28240259   143
SENTINEL-6B             
1 66514U 25264A   25324.84719160  .00001000  00000+0  42995-2 0  9994
2 66514  66.0404 208.2345 0011501 270.2671  89.7029 12.85877033   471
SZ-21 MODULE            
1 66515U 25246C   25324.79671226  .00023663  00000+0  27647-3 0  9996
2 66515  41.4744 149.7537 0004560 104.7450 255.3895 15.61031017  1015
SHIJIAN-30A             
1 66545U 25266A   25324.86300231  .00007177  00000+0  38836-3 0  9998
2 66545  51.7994  75.3304 0012767 278.4320  81.5209 15.15598006   267
SHIJIAN-30B             
1 66546U 25266B   25324.86328410  .00008620  00000+0  46650-3 0  9995
2 66546  51.7977  75.3326 0010458 277.9130  82.0659 15.15355493   267
SHIJIAN-30C             
1 66547U 25266C   25324.86354220  .00005696  00000+0  31599-3 0  9990
2 66547  51.7988  75.3341 0011337 270.4704  89.4973 15.15114739   265
CZ-2C R/B               
1 66548U 25266D   25324.78286606  .00013333  00000+0  42319-3 0  9993
2 66548  52.0556  75.8305 0085494  98.3506 262.7184 15.29489618   253
